      2.10          N: GNSS NAV DATA                        RINEX VERSION / TYPE
fic2rin                                 10/16/2019 00:18:48 PGM / RUN BY / DATE
                                                            END OF HEADER
 5 19 10 15 14  0  0.0-2.354849129915e-06-3.410605131648e-13 0.000000000000e+00
    8.400000000000e+01-7.000000000000e+00 5.350222858257e-09-3.797383399575e-01
   -2.980232238770e-07 5.908938241191e-03 3.878027200699e-06 5.153770576477e+03
    2.232000000000e+05-1.303851604462e-08 1.811960603112e+00 5.774199962616e-08
    9.503679870985e-01 2.971875000000e+02 8.022294279615e-01-8.605001289986e-09
   -1.296482575132e-10 1.000000000000e+00 2.075000000000e+03 0.000000000000e+00
    2.400000000000e+00 0.000000000000e+00-1.117587089539e-08 8.400000000000e+01
    2.160000000000e+05 4.000000000000e+00
 3 19 10 15 14  0  0.0-2.274662256241e-05-4.888534022029e-12 0.000000000000e+00
    8.000000000000e+01-3.218750000000e+00 4.962706716655e-09 1.905055487059e+00
   -2.477318048477e-07 2.573989680968e-03 4.233792424202e-06 5.153684638977e+03
    2.232000000000e+05-1.080334186554e-07 1.840754492596e+00 9.313225746155e-09
    9.634947451721e-01 2.984375000000e+02 7.730730025079e-01-8.313203421148e-09
   -7.143154683922e-11 1.000000000000e+00 2.075000000000e+03 0.000000000000e+00
    2.400000000000e+00 0.000000000000e+00 1.862645149231e-09 8.000000000000e+01
    2.160000000000e+05 4.000000000000e+00
 7 19 10 15 14  0  0.0-1.276428811252e-04-8.071765478235e-12 0.000000000000e+00
    4.700000000000e+01 1.008750000000e+02 4.457685680501e-09 2.398135816097e+00
    5.066394805908e-06 1.317605935037e-02 8.739531040192e-06 5.153732469559e+03
    2.232000000000e+05-1.415610313416e-07-2.335819167604e+00-2.440065145493e-07
    9.546864539743e-01 2.066875000000e+02-2.425834778693e+00-7.954974213749e-09
    3.057270204718e-10 1.000000000000e+00 2.075000000000e+03 0.000000000000e+00
    2.400000000000e+00 0.000000000000e+00-1.117587089539e-08 4.700000000000e+01
    2.160000000000e+05 4.000000000000e+00
16 19 10 15 14  0  0.0-8.353916928172e-05-3.637978807092e-12 0.000000000000e+00
    5.000000000000e+00-2.346875000000e+01 4.410898017322e-09-8.229948186376e-02
   -1.084059476852e-06 1.083913724869e-02 2.183020114899e-06 5.153648178101e+03
    2.232000000000e+05 5.774199962616e-08-1.213777433765e+00 1.341104507446e-07
    9.811132732488e-01 3.469375000000e+02 5.801315092631e-01-8.483567660360e-09
   -5.035924052165e-11 1.000000000000e+00 2.075000000000e+03 0.000000000000e+00
    2.400000000000e+00 0.000000000000e+00-1.071020960808e-08 5.000000000000e+00
    2.160000000000e+05 4.000000000000e+00
 8 19 10 15 14  0  0.0-9.984243661165e-06-1.250555214938e-12 0.000000000000e+00
    2.500000000000e+01-9.631250000000e+01 4.170530862208e-09-8.377294875272e-01
   -5.176290869713e-06 4.538687178865e-03 9.452924132347e-06 5.153570922852e+03
    2.232000000000e+05 1.303851604462e-08-2.685607908406e-01-1.508742570877e-07
    9.705189024421e-01 2.005312500000e+02-2.359440447937e-01-7.916044020722e-09
   -1.750072897561e-10 1.000000000000e+00 2.075000000000e+03 0.000000000000e+00
    2.400000000000e+00 0.000000000000e+00 5.122274160385e-09 2.500000000000e+01
    2.160000000000e+05 4.000000000000e+00
14 19 10 15 14  0  0.0-5.598878487945e-05 2.046363078989e-12 0.000000000000e+00
    2.500000000000e+01-1.525000000000e+01 4.368039089218e-09-1.325518346783e+00
   -8.158385753632e-07 1.075235591270e-02 1.161731779575e-05 5.153758726120e+03
    2.232000000000e+05 1.601874828339e-07 2.966490256969e+00 2.402812242508e-07
    9.609331522086e-01 1.570000000000e+02-1.932954110177e+00-7.911043812443e-09
   -6.050252017282e-10 1.000000000000e+00 2.075000000000e+03 0.000000000000e+00
    2.400000000000e+00 0.000000000000e+00-9.778887033463e-09 2.500000000000e+01
    2.160000000000e+05 4.000000000000e+00
11 19 10 15 14  0  0.0-4.774159751832e-04 1.125499693444e-11 0.000000000000e+00
    1.600000000000e+01-2.587500000000e+01 5.390224524487e-09 2.272493244614e+00
   -1.337379217148e-06 1.655856915750e-02 1.106783747673e-05 5.153736833572e+03
    2.232000000000e+05 2.291053533554e-07 3.388786313124e-01 1.862645149231e-09
    9.111166588660e-01 1.370000000000e+02 1.958458313833e+00-8.089979837275e-09
    1.500062483624e-10 1.000000000000e+00 2.075000000000e+03 0.000000000000e+00
    2.400000000000e+00 0.000000000000e+00-1.210719347000e-08 1.600000000000e+01
    2.160000000000e+05 4.000000000000e+00
10 19 10 15 14  0  0.0-9.508151561022e-05-1.534772309242e-11 0.000000000000e+00
    8.100000000000e+01-6.562500000000e+00 5.088783396826e-09 1.076550859579e+00
   -2.179294824600e-07 4.930335446261e-03 4.146248102188e-06 5.153655881882e+03
    2.232000000000e+05 4.842877388000e-08 1.837591725151e+00 3.911554813385e-08
    9.634851732991e-01 3.003125000000e+02-2.740931512971e+00-8.466781246852e-09
   -1.760787629587e-10 1.000000000000e+00 2.075000000000e+03 0.000000000000e+00
    2.400000000000e+00 0.000000000000e+00 1.862645149231e-09 8.100000000000e+01
    2.160000000000e+05 4.000000000000e+00
 9 19 10 15 14  0  0.0-5.738809704781e-05-1.011812855722e-11 0.000000000000e+00
    6.000000000000e+01-2.884375000000e+01 4.603763193788e-09-5.641368026994e-01
   -1.531094312668e-06 1.519749290310e-03 1.041591167450e-05 5.153583551407e+03
    2.232000000000e+05-4.097819328308e-08 2.872524206769e+00 2.980232238770e-08
    9.529706646533e-01 1.735937500000e+02 1.672618696197e+00-8.035691861678e-09
   -5.203788187237e-10 1.000000000000e+00 2.075000000000e+03 0.000000000000e+00
    2.400000000000e+00 0.000000000000e+00 1.396983861923e-09 6.000000000000e+01
    2.160000000000e+05 4.000000000000e+00
30 19 10 15 14  0  0.0-6.215227767825e-05-8.185452315956e-12 0.000000000000e+00
    1.800000000000e+01 1.005000000000e+02 4.828772566331e-09 2.351303545436e+00
    5.183741450310e-06 4.187010461465e-03 8.042901754379e-06 5.153749107361e+03
    2.232000000000e+05-8.940696716309e-08-2.309757337613e+00 9.313225746155e-09
    9.400655137991e-01 2.150625000000e+02-2.900326855147e+00-8.262487022892e-09
    2.485817830005e-10 1.000000000000e+00 2.075000000000e+03 0.000000000000e+00
    2.400000000000e+00 0.000000000000e+00 3.725290298462e-09 1.800000000000e+01
    2.160000000000e+05 4.000000000000e+00
21 19 10 15 14  0  0.0-1.020012423396e-04 6.139089236967e-12 0.000000000000e+00
    1.700000000000e+01 2.218750000000e+01 4.873060125371e-09 1.207963055618e+00
    8.493661880493e-07 2.449105260894e-02 1.082569360733e-05 5.153640449524e+03
    2.232000000000e+05-1.285225152969e-07 7.305959516139e-01-5.979090929031e-07
    9.502751605576e-01 1.697812500000e+02-1.404837806002e+00-8.302131531388e-09
    6.150256182857e-10 1.000000000000e+00 2.075000000000e+03 0.000000000000e+00
    2.400000000000e+00 0.000000000000e+00-1.024454832077e-08 1.700000000000e+01
    2.160000000000e+05 4.000000000000e+00
26 19 10 15 14  0  0.0 6.207218393683e-05 8.640199666843e-12 0.000000000000e+00
    1.600000000000e+01-8.750000000000e-01 5.091640658699e-09 8.598593477475e-01
   -2.980232238770e-08 4.011397133581e-03 1.378357410431e-06 5.153681972504e+03
    2.232000000000e+05 3.725290298462e-09-1.329993597515e+00 7.078051567078e-08
    9.493711327755e-01 3.452187500000e+02 1.195561490906e-01-8.711434294777e-09
    3.928735076157e-12 1.000000000000e+00 2.075000000000e+03 0.000000000000e+00
    2.400000000000e+00 0.000000000000e+00 7.450580596924e-09 1.600000000000e+01
    2.160000000000e+05 4.000000000000e+00
28 19 10 15 14  0  0.0 7.589436136186e-04-1.250555214938e-12 0.000000000000e+00
    8.000000000000e+00-2.475000000000e+01 4.415898225600e-09-2.518772298005e-01
   -1.363456249237e-06 1.912694470957e-02 2.937391400337e-06 5.153703519821e+03
    2.232000000000e+05-3.110617399216e-07-1.209900044005e+00 2.980232238770e-08
    9.800902721910e-01 3.360000000000e+02-1.451841947593e+00-8.568571201098e-09
    1.107188976008e-11 1.000000000000e+00 2.075000000000e+03 0.000000000000e+00
    2.400000000000e+00 0.000000000000e+00-1.117587089539e-08 8.000000000000e+00
    2.160000000000e+05 4.000000000000e+00
24 19 10 15 14  0  0.0-3.489200025797e-06-5.684341886081e-13 0.000000000000e+00
    3.600000000000e+01 1.175625000000e+02 4.684837999450e-09-2.950767265495e+00
    5.990266799927e-06 8.830661652610e-03 9.333714842796e-06 5.153682714462e+03
    2.232000000000e+05 9.313225746155e-09-2.404163092711e+00-4.284083843231e-08
    9.379543591639e-01 1.872500000000e+02 6.115790019431e-01-8.098908780630e-09
    3.364425856127e-10 1.000000000000e+00 2.075000000000e+03 0.000000000000e+00
    3.400000000000e+00 0.000000000000e+00 2.793967723846e-09 3.600000000000e+01
    2.160000000000e+05 4.000000000000e+00
22 19 10 15 14  0  0.0-7.641073316336e-04-3.183231456205e-12 0.000000000000e+00
    7.400000000000e+01 8.312500000000e+00 5.753096782431e-09-1.962452067023e+00
    5.308538675308e-07 6.878380780108e-03 3.756955265999e-06 5.153671873093e+03
    2.232000000000e+05-2.421438694000e-08 1.762496918797e+00 1.806765794754e-07
    9.281544304090e-01 2.876562500000e+02-1.275606232725e+00-8.673932732686e-09
   -6.428839215530e-12 1.000000000000e+00 2.075000000000e+03 0.000000000000e+00
    2.400000000000e+00 0.000000000000e+00-1.816079020500e-08 7.400000000000e+01
    2.160000000000e+05 4.000000000000e+00
27 19 10 15 14  0  0.0-8.834060281515e-05-1.216449163621e-11 0.000000000000e+00
    7.300000000000e+01-1.022500000000e+02 4.002309569401e-09-1.035574295963e+00
   -5.325302481651e-06 7.251132861711e-03 9.702518582344e-06 5.153657695770e+03
    2.232000000000e+05 2.253800630569e-07-2.560922610535e-01-5.587935447693e-09
    9.788680450974e-01 1.998437500000e+02 5.077653625798e-01-7.845683947085e-09
   -2.182233755938e-10 1.000000000000e+00 2.075000000000e+03 0.000000000000e+00
    2.400000000000e+00 0.000000000000e+00 1.396983861923e-09 7.300000000000e+01
    2.160000000000e+05 4.000000000000e+00
